#dP2021  9 28  0  0  0.00000000      97 __u+U IGS14 FIT  IAC
## 2177 172800.00000000   900.00000000 59485 0.0000000000000
+  122   C01C02C03C04C05C06C07C08C09C10C11C12C13C14C16C19C20
+        C21C22C23C24C25C26C27C28C29C30C32C33C34C35C36C37C38
+        C39C40C41C42C43C44C45C46E01E02E03E04E05E07E08E09E11
+        E12E13E14E15E18E19E21E24E25E26E27E30E31E33E36G01G02
+        G03G04G05G06G07G08G09G10G12G13G14G15G16G17G18G19G20
+        G21G22G23G24G25G26G27G28G29G30G31G32J01J02J03J07R01
+        R02R03R04R05R07R08R09R11R12R13R14R15R16R17R18R19R20
+        R21R22R24  0  0  0  0  0  0  0  0  0  0  0  0  0  0
++         0  0  0  0  0  0  0  0  0  0  0  0  0  0  0  0  0
++         0  0  0  0  0  0  0  0  0  0  0  0  0  0  0  0  0
++         0  0  0  0  0  0  0  0  0  0  0  0  0  0  0  0  0
++         0  0  0  0  0  0  0  0  0  0  0  0  0  0  0  0  0
++         0  0  0  0  0  0  0  0  0  0  0  0  0  0  0  0  0
++         0  0  0  0  0  0  0  0  0  0  0  0  0  0  0  0  0
++         0  0  0  0  0  0  0  0  0  0  0  0  0  0  0  0  0
++         0  0  0  0  0  0  0  0  0  0  0  0  0  0  0  0  0
%c M  cc GPS ccc cccc cccc cccc cccc ccccc ccccc ccccc ccccc
%c cc cc ccc ccc cccc cccc cccc cccc ccccc ccccc ccccc ccccc
%f  1.2500000  1.025000000  0.00000000000  0.000000000000000
%f  0.0000000  0.000000000  0.00000000000  0.000000000000000
%i    0    0    0    0      0      0      0      0         0
%i    0    0    0    0      0      0      0      0         0
/* INFORMATION & ANALYSIS CENTER (IAC)            FINAL DATA
/* S/V CLOCKS ARE ALIGNED TO GNSS TIME                      
/* G:C1WC2W R:C1PC2P E:C1XC5X C:C2IC6I J:C1CC2S             
/* PCV:IGS14_2163 OL/AL:FES2004  NONE     YN ORB:CoN CLK:CoN
*  2021 09 28 20  0  0.00000000
PC01 -34325.584554  24506.733431    165.450407    -25.616178
PC02   4332.881745  41897.509848   -785.820647    295.473453
PC03 -14774.662673  39460.124935   -274.305372   -104.425804
PC04 -39567.840345  14543.026456    490.036239    103.795653
PC05  21900.312792  35999.407215  -1168.830371    249.522758
PC06  -1317.736903  30961.468546 -28519.544812    258.236165
PC07 -16859.251603  27499.066433  27096.005218   -154.714149
PC08 -12822.480864  40210.413716  -1789.258044   -915.734292
PC09   6453.148031  34954.890057 -21998.234657   -142.508680
PC10  -7734.792306  28062.375131  30630.415758      3.191445
PC11 -19562.265994  -5918.970743  19040.446705    601.211000
PC12 -18395.072425 -20562.664598   4111.716988    748.885954
PC13  -7353.266424  40744.386261  -8619.889798    424.616791
PC14 -27687.774553   1492.914588   2890.644046    617.175383
PC16  -3622.216671  28789.632402 -30366.951700   -787.662056
PC19  25927.318165  -7934.191305   6652.658887    955.866167
PC20  25678.461371   3868.797847 -10249.514046   -797.602044
PC21  -9936.222257 -14053.798236  21969.055426   -931.831664
PC22  11214.636613 -15535.350159  20289.926296   -954.229446
PC23 -10874.356591  25701.372317    249.486473   -965.134731
PC24 -14779.220810  -6787.857941 -22676.263931   -968.459019
PC25 -17894.932800  14719.736345 -15568.601167   -847.965637
PC26  -3981.213328 -22025.170012 -16649.526329    843.549397
PC27  13306.164135  24016.171615   4948.451568    604.724591
PC28  -2014.074940  19959.077795  19407.407277    -21.076193
PC29  15977.058326  -4774.362221 -22382.687103    453.367369
PC30  21244.999275  13701.098903 -11807.443991    481.955471
PC32  10005.668797  13999.041340 -21965.224408   -954.206526
PC33 -25906.683095   8022.057105  -6547.548051   -967.934672
PC34 -21282.670664 -13054.518681  12472.467017   -571.700735
PC35   1728.609837 -19821.684892 -19582.738380    -70.792216
PC36  18293.408721 -13871.660011  15893.100054   -767.853520
PC37   2712.493954  22732.057360  15994.828472   -868.891918
PC38 -16749.260282  38314.678648   6072.308123    178.608710
PC39  -8271.604907  24729.465248 -33104.826992     33.394781
PC40 -22909.972144  21453.520795  28073.116403    203.652918
PC41 -11541.997200  15526.642851 -20072.368968   -930.189266
PC42 -25245.938977  -4470.194696  11035.445973   -965.529366
PC43 -16429.020085   4175.562853  22163.294328   -935.576973
PC44 -13954.506367 -23627.750188  -5158.020320    410.954572
PC45  10738.778500 -25740.830827   -399.559673    559.901438
PC46  15197.447298   5501.717059  22759.879495     63.981661
PE01  15994.781369 -22330.951012 -11016.595995   -484.376197
PE02 -15875.612808  22362.890843  11162.682344    249.935352
PE03  -6938.890829  15629.902911 -24167.193127   -479.524099
PE04 -14203.436542 -18942.795257  17764.189296   -866.546326
PE05 -24396.334892   3066.351216 -16481.254791   -245.806200
PE07  27425.980138  11129.334063   -711.307756   -590.446556
PE08  14701.160389  18739.456464 -17588.079487   5930.194255
PE09 -27515.236079 -10877.450803    519.728731   5516.071173
PE11 -16031.075027 -13423.359585  20943.160199   5353.875583
PE12  -7809.310578 -28138.859793   4853.611580   4986.825128
PE13  15919.426371  13913.162014 -20717.265325    422.012731
PE14  -1066.158542 -21750.497687 -21116.126754  -1586.716470
PE15   7870.269450  28124.666415  -4841.016343    789.739793
PE18  15976.149962  20154.815681   8901.383018  -1742.076531
PE19   9496.290414 -14353.713087  24081.852511    389.098266
PE21  25050.200737 -14217.961168   6827.059304   -690.588704
PE24 -19519.143262  -3555.342953 -21976.278112  -1142.694804
PE25 -25074.351746  14079.066649  -7009.592872   -548.232019
PE26  14451.830191  -9487.253094 -24023.723215   1290.579897
PE27  20129.002349   2544.243438  21562.224826   -130.616088
PE30   2183.908648  18362.215649  23116.618637   2582.711425
PE31  -3413.568820 -17664.357724 -23489.047962   -486.142461
PE33   4788.902515 -25723.487263 -13833.824275   -464.384844
PE36 -14573.029641   8435.020990  24345.321398   -268.757094
PG01 -13102.062637  11905.760143  19411.698421    554.341796
PG02  13547.450760  12761.052952 -18267.315738   -634.789221
PG03 -23377.588700  12443.318867    966.041368   -305.743831
PG04 -17664.548321   4723.822414 -19284.953491   -204.127549
PG05  22816.641807  -2823.345138 -13601.460121    -55.927306
PG06   6373.128947  23695.792676 -10032.377027     83.607134
PG07  -6316.158080  24021.427612  -8313.012514    253.489937
PG08 -23709.920861  -4261.105504  11519.784363    -38.165950
PG09  -6759.178051  13856.759102 -21696.802841   -361.487121
PG10   1029.164693 -16804.299347  20589.120630   -212.846643
PG12  24321.467161 -10328.563650   1587.778236   -103.989571
PG13  22683.235617  12511.261369   6069.293290    192.038421
PG14  -1607.384760  16976.094962  20348.806056     -8.266637
PG15  24057.881031   1463.265852  11137.003424   -117.779016
PG16 -20985.926948  -2920.695496 -16544.635774   -398.328255
PG17   6468.611466  18871.076262  17964.835594    511.481969
PG18   5595.253198 -24936.933286  -7060.174412    316.921116
PG19  14650.542829  19545.938982  10356.705475     58.982116
PG20  15972.661970   6281.969551 -20233.610914    518.903133
PG21 -15408.517796   2633.680808  22138.193667    145.051374
PG22 -23428.552491   8338.892229   9207.427657   -502.015224
PG23  12755.629661 -18755.370596  13733.915509     51.661287
PG24  14738.134901  -7206.385887  20555.009158    244.164330
PG25  19050.025680 -16845.626903  -7429.706365    215.869658
PG26 -11012.348825 -11486.500620 -21346.697528    139.249324
PG27 -23665.257178 -12284.973609   2118.120051   -199.220354
PG28   5164.462320  14382.007973  22278.092366    492.452999
PG29  10383.920081 -10662.996543 -22043.992017   -418.579299
PG30   1057.203400  26291.384102   2562.620347   -477.398168
PG31  -7741.381313 -22182.778790 -12013.344409   -142.194302
PG32 -11009.064865 -18867.806654  15346.022080     -4.829968
PJ01 -31753.903441  15505.106259 -18448.986167    188.723871
PJ02 -29009.328005  30661.853690   4461.191667     -2.906968
PJ03 -25754.377428  22886.426749  29373.449680     -2.797837
PJ07 -25362.262044  33690.569389    -51.418313     -0.034932
PR01  17427.901501  -7513.762688  17043.697965     85.956240
PR02  -3839.830417 -11009.697216  22728.452202    494.854006
PR03 -20405.999705  -7626.103306  13354.025266     43.763360
PR04 -25289.317603    -71.425268  -3358.223712    106.922335
PR05 -16229.652439   7452.533751 -18220.892448     79.755811
PR07  20803.252403   7368.286000 -12717.074290    -40.955512
PR08  25256.619877    -78.297914   3524.214785    -61.207199
PR09  -4567.584402  20443.788358  14523.643630     15.571700
PR11      0.000000      0.000000      0.000000 999999.999999
PR12  14901.531805 -20540.014347   2534.707641    265.758707
PR13   5392.884246 -20728.686671 -13862.941608    -61.363556
PR14  -7812.622228  -8226.614296 -22828.775041     69.315551
PR15 -15936.071899   8564.397924 -17954.669579    101.171830
PR16 -13997.779349  21370.675024  -1275.107392    -22.235621
PR17 -14038.452635 -19270.547555   9008.191420    462.296787
PR18 -13177.368136  -5425.113308  21180.657245     91.993222
PR19  -6200.918079  10421.557206  22442.221047   -161.112681
PR20   5901.055757  23020.957832   9233.299110    -56.668461
PR21  14171.796025  18605.625614 -10227.752498   -242.767861
PR22  12781.983421   4406.836203 -21624.476431   -135.860252
PR24  -6598.834544 -23128.318459  -8445.446741     60.514851
EOF
